[{"OBJECT_NAME":"STARLINK-35038","OBJECT_ID":"2025-195AA","EPOCH":"2026-03-09T21:32:05.053344","MEAN_MOTION":15.30191068,"ECCENTRICITY":0.00011368,"INCLINATION":53.1583,"RA_OF_ASC_NODE":257.3196,"ARG_OF_PERICENTER":95.9615,"MEAN_ANOMALY":264.1515,"EPHEMERIS_TYPE":0,"CLASSIFICATION_TYPE":"U","NORAD_CAT_ID":65482,"ELEMENT_SET_NO":999,"REV_AT_EPOCH":3000,"BSTAR":0.00069506035,"MEAN_MOTION_DOT":0.00020277,"MEAN_MOTION_DDOT":0},{"OBJECT_NAME":"GLOBAL-34","OBJECT_ID":"2026-043A","EPOCH":"2026-03-09T11:23:30.999840","MEAN_MOTION":15.31488019,"ECCENTRICITY":0.00068849,"INCLINATION":42.0215,"RA_OF_ASC_NODE":76.7399,"ARG_OF_PERICENTER":289.2632,"MEAN_ANOMALY":70.746,"EPHEMERIS_TYPE":0,"CLASSIFICATION_TYPE":"U","NORAD_CAT_ID":68098,"ELEMENT_SET_NO":999,"REV_AT_EPOCH":53,"BSTAR":0.00045822046,"MEAN_MOTION_DOT":0.00014018,"MEAN_MOTION_DDOT":0}]
